{
  "type": "FeatureCollection",
  "features": [
    {
      "type": "Feature",
      "properties": {
        "norad_id": 34815,
        "name": "COSMOS 2251 DEB",
        "group": "cosmos-2251-debris",
        "lat": 4.148183147457272,
        "lon": 54.61870123789656,
        "alt_km": 662.2290326390375,
        "timestamp": "2025-12-15T19:00:45.753891+00:00",
        "meta_object_name": "COSMOS 2251 DEB",
        "meta_object_id": "1993-036ABE",
        "meta_epoch": "2025-12-14T16:13:50.024352",
        "meta_mean_motion": 14.78343903,
        "meta_eccentricity": 0.00588608,
        "meta_inclination": 74.045,
        "meta_ra_of_asc_node": 237.9979,
        "meta_arg_of_pericenter": 306.6472,
        "meta_mean_anomaly": 52.9299,
        "meta_ephemeris_type": 0,
        "meta_classification_type": "U",
        "meta_norad_cat_id": 34815,
        "meta_element_set_no": 999,
        "meta_rev_at_epoch": 88656,
        "meta_bstar": 0.00063986955,
        "meta_mean_motion_dot": 4.759e-05,
        "meta_mean_motion_ddot": 0,
        "tle_line1": "1 34815U 93036ABE 25348.67627343  .00004759  00000+0  63987-3 0  9992",
        "tle_line2": "2 34815  74.0450 237.9979 0058860 306.6472  52.9299 14.78343903886565"
      },
      "geometry": {
        "type": "Point",
        "coordinates": [
          54.61870123789656,
          4.148183147457272
        ]
      }
    },
    {
      "type": "Feature",
      "properties": {
        "norad_id": 34816,
        "name": "COSMOS 2251 DEB",
        "group": "cosmos-2251-debris",
        "lat": -67.03895605198662,
        "lon": 1.1651042110666532,
        "alt_km": 869.2966890962953,
        "timestamp": "2025-12-15T19:00:45.753901+00:00",
        "meta_object_name": "COSMOS 2251 DEB",
        "meta_object_id": "1993-036ABF",
        "meta_epoch": "2025-12-14T03:29:02.256864",
        "meta_mean_motion": 13.58328095,
        "meta_eccentricity": 0.03733885,
        "meta_inclination": 73.8862,
        "meta_ra_of_asc_node": 140.8284,
        "meta_arg_of_pericenter": 205.0597,
        "meta_mean_anomaly": 274.0659,
        "meta_ephemeris_type": 0,
        "meta_classification_type": "U",
        "meta_norad_cat_id": 34816,
        "meta_element_set_no": 999,
        "meta_rev_at_epoch": 82802,
        "meta_bstar": 0.0016074994,
        "meta_mean_motion_dot": 1.819e-05,
        "meta_mean_motion_ddot": 0,
        "tle_line1": "1 34816U 93036ABF 25348.14516501  .00001819  00000+0  16075-2 0  9997",
        "tle_line2": "2 34816  73.8862 140.8284 0373388 205.0597 274.0659 13.58328095828022"
      },
      "geometry": {
        "type": "Point",
        "coordinates": [
          1.1651042110666532,
          -67.03895605198662
        ]
      }
    },
    {
      "type": "Feature",
      "properties": {
        "norad_id": 34818,
        "name": "COSMOS 2251 DEB",
        "group": "cosmos-2251-debris",
        "lat": -1.941110064981385,
        "lon": -69.22899833814338,
        "alt_km": 754.21262068739,
        "timestamp": "2025-12-15T19:00:45.753911+00:00",
        "meta_object_name": "COSMOS 2251 DEB",
        "meta_object_id": "1993-036ABH",
        "meta_epoch": "2025-12-14T21:34:20.449056",
        "meta_mean_motion": 14.3696956,
        "meta_eccentricity": 0.00242733,
        "meta_inclination": 74.036,
        "meta_ra_of_asc_node": 292.9688,
        "meta_arg_of_pericenter": 8.1388,
        "meta_mean_anomaly": 50.4834,
        "meta_ephemeris_type": 0,
        "meta_classification_type": "U",
        "meta_norad_cat_id": 34818,
        "meta_element_set_no": 999,
        "meta_rev_at_epoch": 87401,
        "meta_bstar": 0.00022851933,
        "meta_mean_motion_dot": 6.53e-06,
        "meta_mean_motion_ddot": 0,
        "tle_line1": "1 34818U 93036ABH 25348.89884779  .00000653  00000+0  22852-3 0  9992",
        "tle_line2": "2 34818  74.0360 292.9688 0024273   8.1388  50.4834 14.36969560874019"
      },
      "geometry": {
        "type": "Point",
        "coordinates": [
          -69.22899833814338,
          -1.941110064981385
        ]
      }
    },
    {
      "type": "Feature",
      "properties": {
        "norad_id": 34819,
        "name": "COSMOS 2251 DEB",
        "group": "cosmos-2251-debris",
        "lat": -31.36757935904852,
        "lon": -33.14567668640931,
        "alt_km": 675.3436531464458,
        "timestamp": "2025-12-15T19:00:45.753922+00:00",
        "meta_object_name": "COSMOS 2251 DEB",
        "meta_object_id": "1993-036ABJ",
        "meta_epoch": "2025-12-14T03:13:21.079200",
        "meta_mean_motion": 14.63997819,
        "meta_eccentricity": 0.00157122,
        "meta_inclination": 74.0175,
        "meta_ra_of_asc_node": 139.978,
        "meta_arg_of_pericenter": 234.2425,
        "meta_mean_anomaly": 244.094,
        "meta_ephemeris_type": 0,
        "meta_classification_type": "U",
        "meta_norad_cat_id": 34819,
        "meta_element_set_no": 999,
        "meta_rev_at_epoch": 88249,
        "meta_bstar": 0.0017059273,
        "meta_mean_motion_dot": 8.937e-05,
        "meta_mean_motion_ddot": 0,
        "tle_line1": "1 34819U 93036ABJ 25348.13427175  .00008937  00000+0  17059-2 0  9998",
        "tle_line2": "2 34819  74.0175 139.9780 0015712 234.2425 244.0940 14.63997819882497"
      },
      "geometry": {
        "type": "Point",
        "coordinates": [
          -33.14567668640931,
          -31.36757935904852
        ]
      }
    },
    {
      "type": "Feature",
      "properties": {
        "norad_id": 34823,
        "name": "COSMOS 2251 DEB",
        "group": "cosmos-2251-debris",
        "lat": 19.198135024687573,
        "lon": -89.21630502137316,
        "alt_km": 606.6173832413915,
        "timestamp": "2025-12-15T19:00:45.753933+00:00",
        "meta_object_name": "COSMOS 2251 DEB",
        "meta_object_id": "1993-036ABN",
        "meta_epoch": "2025-12-14T17:31:25.880160",
        "meta_mean_motion": 14.54947797,
        "meta_eccentricity": 0.01545511,
        "meta_inclination": 74.0414,
        "meta_ra_of_asc_node": 98.5117,
        "meta_arg_of_pericenter": 182.8015,
        "meta_mean_anomaly": 177.2302,
        "meta_ephemeris_type": 0,
        "meta_classification_type": "U",
        "meta_norad_cat_id": 34823,
        "meta_element_set_no": 999,
        "meta_rev_at_epoch": 88410,
        "meta_bstar": 0.0007013707,
        "meta_mean_motion_dot": 3.511e-05,
        "meta_mean_motion_ddot": 0,
        "tle_line1": "1 34823U 93036ABN 25348.73016065  .00003511  00000+0  70137-3 0  9991",
        "tle_line2": "2 34823  74.0414  98.5117 0154551 182.8015 177.2302 14.54947797884109"
      },
      "geometry": {
        "type": "Point",
        "coordinates": [
          -89.21630502137316,
          19.198135024687573
        ]
      }
    },
    {
      "type": "Feature",
      "properties": {
        "norad_id": 34845,
        "name": "COSMOS 2251 DEB",
        "group": "cosmos-2251-debris",
        "lat": 27.961142652227732,
        "lon": 151.40296736156432,
        "alt_km": 736.642591213069,
        "timestamp": "2025-12-15T19:00:45.753943+00:00",
        "meta_object_name": "COSMOS 2251 DEB",
        "meta_object_id": "1993-036ABP",
        "meta_epoch": "2025-12-09T20:04:05.418048",
        "meta_mean_motion": 14.45850049,
        "meta_eccentricity": 0.00222586,
        "meta_inclination": 74.0237,
        "meta_ra_of_asc_node": 153.7694,
        "meta_arg_of_pericenter": 315.2139,
        "meta_mean_anomaly": 44.7222,
        "meta_ephemeris_type": 0,
        "meta_classification_type": "U",
        "meta_norad_cat_id": 34845,
        "meta_element_set_no": 999,
        "meta_rev_at_epoch": 87424,
        "meta_bstar": 0.00046671234,
        "meta_mean_motion_dot": 1.636e-05,
        "meta_mean_motion_ddot": 0,
        "tle_line1": "1 34845U 93036ABP 25343.83617382  .00001636  00000+0  46671-3 0  9992",
        "tle_line2": "2 34845  74.0237 153.7694 0022258 315.2139  44.7222 14.45850049874243"
      },
      "geometry": {
        "type": "Point",
        "coordinates": [
          151.40296736156432,
          27.961142652227732
        ]
      }
    },
    {
      "type": "Feature",
      "properties": {
        "norad_id": 34846,
        "name": "COSMOS 2251 DEB",
        "group": "cosmos-2251-debris",
        "lat": -16.149193662202638,
        "lon": -108.68882849225349,
        "alt_km": 721.8387008096697,
        "timestamp": "2025-12-15T19:00:45.753953+00:00",
        "meta_object_name": "COSMOS 2251 DEB",
        "meta_object_id": "1993-036ABQ",
        "meta_epoch": "2025-12-14T21:31:21.915552",
        "meta_mean_motion": 14.47230396,
        "meta_eccentricity": 0.00261368,
        "meta_inclination": 74.0309,
        "meta_ra_of_asc_node": 257.7412,
        "meta_arg_of_pericenter": 323.8357,
        "meta_mean_anomaly": 36.1033,
        "meta_ephemeris_type": 0,
        "meta_classification_type": "U",
        "meta_norad_cat_id": 34846,
        "meta_element_set_no": 999,
        "meta_rev_at_epoch": 87435,
        "meta_bstar": 0.00064535999,
        "meta_mean_motion_dot": 2.342e-05,
        "meta_mean_motion_ddot": 0,
        "tle_line1": "1 34846U 93036ABQ 25348.89678143  .00002342  00000+0  64536-3 0  9991",
        "tle_line2": "2 34846  74.0309 257.7412 0026136 323.8357  36.1033 14.47230396874359"
      },
      "geometry": {
        "type": "Point",
        "coordinates": [
          -108.68882849225349,
          -16.149193662202638
        ]
      }
    }
  ]
}